UNKNOWN                 
1 82139U          25354.13518942  .00001674  00000+0  85255-3 0  9990
2 82139  99.0236  62.1012 0081968  22.1853 338.2835 14.15454577481164
UNKNOWN                 
1 82162U          25351.52999826  .00003422  00000+0  51175-2 0  9996
2 82162 100.4766 276.2980 0047625 228.6892 131.0137 13.53592911504958
UNKNOWN                 
1 82180U          25355.15517196  .00008123  00000+0  10614-2 0  9991
2 82180  65.6551 264.6005 0316887 213.0058 145.0911 14.51608172602974
UNKNOWN                 
1 82189U          25349.85248579  .00000283  00000+0  10787-3 0  9997
2 82189  74.0351  42.6106 0017492 236.3084 123.6401 14.35212469632867
UNKNOWN                 
1 82199U          25354.43125979  .00000476  00000+0  39986-3 0  9992
2 82199  82.9660 228.0994 0038329  14.8946 166.2397 13.85785465610758
UNKNOWN                 
1 82205U          25353.91901423  .00001497  00000+0  44810-3 0  9994
2 82205  63.0080 224.9996 0494187 293.7425  61.2533 13.93365919609006
UNKNOWN                 
1 82223U          25347.47905740  .00003983  00000+0  21575-2 0  9998
2 82223  99.3186 233.4630 0069943 343.8875  16.0071 14.11844014448891
UNKNOWN                 
1 82250U          25350.21638612  .00002424  00000+0  12738-2 0  9995
2 82250  98.9085 255.6660 0069566 181.7920 333.3704 14.13817190617123
UNKNOWN                 
1 82272U          25348.82040814  .00000410  00000+0  14137-2 0  9992
2 82272  67.5228 196.9680 0753328 105.0648 263.4912 12.33556814272190
UNKNOWN                 
1 82295U          25346.72562200  .00002770  00000+0  98631-3 0  9995
2 82295  66.6173 148.2102 0127087 223.3779 135.7264 14.31337782579720
UNKNOWN                 
1 82303U          25355.74910775  .00025307  00000+0  21332-1 0  9994
2 82303  81.9440 355.4087 0047338 321.5375 217.1786 13.87106957515670
UNKNOWN                 
1 82311U          25351.41117553  .00000664  00000+0  99611-3 0  9992
2 82311  99.4341  45.0309 0109048 295.1442  63.8416 13.54548713550950
